COSMOS 2576             
1 59773U 24092A   26068.82603826  .00015211  00000+0  56283-3 0  9991
2 59773  97.4253 186.0053 0005946 159.7731 200.3745 15.27760963101271
STARLINK-31943          
1 59878U 24098W   26067.99443929  .00024142  00000+0  86464-3 0  9993
2 59878  43.0020 285.9160 0002992 274.9020  85.1490 15.28302612101048
