[{"OBJECT_NAME":"COSMOS 2576","OBJECT_ID":"2024-092A","EPOCH":"2026-03-09T19:49:29.705664","MEAN_MOTION":15.27760963,"ECCENTRICITY":0.0005946,"INCLINATION":97.4253,"RA_OF_ASC_NODE":186.0053,"ARG_OF_PERICENTER":159.7731,"MEAN_ANOMALY":200.3745,"EPHEMERIS_TYPE":0,"CLASSIFICATION_TYPE":"U","NORAD_CAT_ID":59773,"ELEMENT_SET_NO":999,"REV_AT_EPOCH":10127,"BSTAR":0.00056283,"MEAN_MOTION_DOT":0.00015211,"MEAN_MOTION_DDOT":0},{"OBJECT_NAME":"STARLINK-31943","OBJECT_ID":"2024-098W","EPOCH":"2026-03-08T23:51:59.554656","MEAN_MOTION":15.28302612,"ECCENTRICITY":0.00029924,"INCLINATION":43.002,"RA_OF_ASC_NODE":285.916,"ARG_OF_PERICENTER":274.902,"MEAN_ANOMALY":85.149,"EPHEMERIS_TYPE":0,"CLASSIFICATION_TYPE":"U","NORAD_CAT_ID":59878,"ELEMENT_SET_NO":999,"REV_AT_EPOCH":10104,"BSTAR":0.00086463907,"MEAN_MOTION_DOT":0.00024142,"MEAN_MOTION_DDOT":0}]
